OBJECT_NAME,OBJECT_ID,EPOCH,MEAN_MOTION,ECCENTRICITY,INCLINATION,RA_OF_ASC_NODE,ARG_OF_PERICENTER,MEAN_ANOMALY,EPHEMERIS_TYPE,CLASSIFICATION_TYPE,NORAD_CAT_ID,ELEMENT_SET_NO,REV_AT_EPOCH,BSTAR,MEAN_MOTION_DOT,MEAN_MOTION_DDOT
QZS-1R (MICHIBIKI-1R),2021-096A,2026-06-25T14:54:03.356352,1.00253341,.0755538,37.4786,79.4571,271.9543,279.2646,0,U,49336,999,1709,0,-.314E-5,0
JILIN-1 GAOFEN 2F,2021-097A,2026-06-25T20:40:44.626368,15.07811999,.0018429,97.6704,303.0406,193.0565,167.0188,0,U,49338,999,25762,.24952E-3,.3769E-4,0
YAOGAN-32 02A,2021-099A,2026-06-24T13:12:56.704320,14.64219967,.0001664,98.2481,309.3687,140.0432,220.0893,0,U,49383,999,24744,.12556686E-3,.613E-5,0
YAOGAN-32 02B,2021-099B,2026-06-24T13:12:45.595008,14.64217263,.00011209,98.2476,309.3778,118.8249,241.3066,0,U,49384,999,24744,.12225016E-3,.595E-5,0
SDGSAT 1,2021-100A,2026-06-25T20:37:20.838144,15.19147684,.0007902,97.2636,223.4780,235.5048,124.5442,0,U,49387,999,25723,.12661E-3,.2597E-4,0
YAOGAN-35 01A,2021-101A,2026-06-25T12:54:13.211424,15.26734036,.0005277,34.9897,223.1027,95.0488,265.0830,0,U,49390,999,25815,.25333E-3,.6797E-4,0
YAOGAN-35 01C,2021-101D,2026-06-25T12:54:08.664192,15.23297009,.0005113,35.0029,212.3690,99.3709,260.7584,0,U,49393,999,25828,.40165E-3,.974E-4,0
TEIKYOSAT-4 (OORURI),2021-102B,2026-06-25T16:07:26.080896,15.09536099,.0010349,97.3665,205.8253,262.8294,97.1759,0,U,49396,999,25400,.10832E-3,.1678E-4,0
RAISE 2,2021-102C,2026-06-25T14:29:28.104000,15.21595145,.0006986,97.3252,209.3968,248.6840,111.3650,0,U,49397,999,25471,.31815E-3,.7116E-4,0
Z-SAT,2021-102E,2026-06-25T19:57:33.858432,15.18322872,.0015597,97.3328,211.8922,211.8759,148.1532,0,U,49399,999,25475,.2488E-3,.5055E-4,0
HIBARI,2021-102F,2026-06-25T16:39:39.610080,15.31892798,.0012373,97.3238,222.5006,162.6168,197.5499,0,U,49400,999,25549,.46337E-3,.14235E-3,0
DRUMS,2021-102G,2026-06-25T15:06:47.128032,15.20553572,.0014813,97.3291,213.4910,196.3883,163.6876,0,U,49401,999,25486,.26999E-3,.5859E-4,0
KOSEN-1,2021-102H,2026-06-25T14:17:46.868640,15.26944089,.0014111,97.3188,218.5895,170.8305,189.3195,0,U,49402,999,25530,.36574E-3,.9634E-4,0
STARLINK-3075,2021-104B,2026-06-25T19:46:19.876224,15.12577865,.0002846,53.1602,103.4732,88.8590,271.2729,0,U,49409,999,25496,.10954E-1,.198469E-2,0
STARLINK-3147,2021-104C,2026-06-25T10:06:24.716160,15.12264377,.0001932,53.1610,105.3038,95.7270,264.3943,0,U,49410,999,25489,.1279E-1,.230831E-2,0
STARLINK-3162,2021-104D,2026-06-25T11:39:02.064384,15.08835841,.0001372,53.1609,95.0629,91.9078,268.2071,0,U,49411,999,25504,.52127E-4,.542E-5,0
STARLINK-3157,2021-104F,2026-06-25T17:56:39.578784,15.08832453,.0001532,53.1624,93.8974,95.5748,264.5418,0,U,49413,999,25508,.50038E-4,.508E-5,0
STARLINK-3146,2021-104G,2026-06-25T19:39:56.064960,15.08846583,.0002148,53.1610,103.5613,97.1661,262.9574,0,U,49414,999,25495,.12531E-3,.1707E-4,0
STARLINK-3159,2021-104H,2026-06-25T17:49:58.871136,15.08832730,.0001288,53.1610,93.9093,95.9363,264.1775,0,U,49415,999,25507,.42055E-4,.381E-5,0
STARLINK-3133,2021-104J,2026-06-25T19:29:19.385952,15.08845265,.0001362,53.1606,103.5943,92.6876,267.4271,0,U,49416,999,25495,.84578E-4,.1059E-4,0
STARLINK-3154,2021-104K,2026-06-25T18:32:18.585312,15.08834167,.0001188,53.1595,93.4255,92.8771,267.2357,0,U,49417,999,25508,-.15753E-4,-.539E-5,0
STARLINK-3111,2021-104L,2026-06-25T19:24:02.291040,15.08840049,.0001551,53.1596,103.6109,96.4536,263.6632,0,U,49418,999,25494,-.18263E-5,-.317E-5,0
STARLINK-3120,2021-104M,2026-06-25T19:08:08.105856,15.08840830,.0001427,53.1603,103.6616,93.2724,266.8431,0,U,49419,999,25494,.48353E-4,.482E-5,0
STARLINK-3110,2021-104N,2026-06-25T12:55:11.243712,15.09927240,.0001778,53.1601,104.8120,110.8036,249.3146,0,U,49420,999,25490,.74303E-2,.123689E-2,0
STARLINK-3112,2021-104P,2026-06-25T12:07:37.545888,15.09910444,.0001814,53.1610,104.7679,97.7815,262.3383,0,U,49421,999,25490,.77317E-2,.128752E-2,0
STARLINK-3161,2021-104Q,2026-06-25T19:57:17.390592,15.08834312,.0001759,53.1611,103.8271,82.1056,278.0135,0,U,49422,999,25494,.20565E-3,.2986E-4,0
STARLINK-3135,2021-104S,2026-06-25T19:02:50.196192,15.08838661,.0001345,53.1609,103.6789,83.7826,276.3319,0,U,49424,999,25494,.52375E-4,.546E-5,0
STARLINK-3139,2021-104T,2026-06-25T09:07:03.918144,15.10668343,.0001471,53.1600,105.5202,77.2644,282.8512,0,U,49425,999,25489,.11792E-1,.202782E-2,0
STARLINK-3114,2021-104U,2026-06-25T18:52:14.529792,15.08838187,.0001335,53.1611,103.7111,92.5965,267.5179,0,U,49426,999,25494,.77213E-4,.941E-5,0
STARLINK-3131,2021-104V,2026-06-25T12:12:17.152704,15.10735349,.0001558,53.1612,104.9389,111.7974,248.3184,0,U,49427,999,25491,.11743E-1,.202297E-2,0
