QZS-1R (MICHIBIKI-1R)   
1 49336U 21096A   26176.62087218 -.00000314  00000+0  00000+0 0  9996
2 49336  37.4786  79.4571 0755538 271.9543 279.2646  1.00253341 17091
JILIN-1 GAOFEN 2F       
1 49338U 21097A   26176.86162762  .00003769  00000+0  24952-3 0  9995
2 49338  97.6704 303.0406 0018429 193.0565 167.0188 15.07811999257624
YAOGAN-32 02A           
1 49383U 21099A   26175.55065630  .00000613  00000+0  12557-3 0  9991
2 49383  98.2481 309.3687 0001664 140.0432 220.0893 14.64219967247442
YAOGAN-32 02B           
1 49384U 21099B   26175.55052772  .00000595  00000+0  12225-3 0  9996
2 49384  98.2476 309.3778 0001120 118.8249 241.3066 14.64217263247449
SDGSAT 1                
1 49387U 21100A   26176.85926896  .00002597  00000+0  12661-3 0  9991
2 49387  97.2636 223.4780 0007902 235.5048 124.5442 15.19147684257234
YAOGAN-35 01A           
1 49390U 21101A   26176.53765291  .00006797  00000+0  25333-3 0  9997
2 49390  34.9897 223.1027 0005277  95.0488 265.0830 15.26734036258151
YAOGAN-35 01C           
1 49393U 21101D   26176.53760028  .00009740  00000+0  40165-3 0  9994
2 49393  35.0029 212.3690 0005113  99.3709 260.7584 15.23297009258284
TEIKYOSAT-4 (OORURI)    
1 49396U 21102B   26176.67182964  .00001678  00000+0  10832-3 0  9990
2 49396  97.3665 205.8253 0010349 262.8294  97.1759 15.09536099254000
RAISE 2                 
1 49397U 21102C   26176.60379750  .00007116  00000+0  31815-3 0  9992
2 49397  97.3252 209.3968 0006986 248.6840 111.3650 15.21595145254714
Z-SAT                   
1 49399U 21102E   26176.83164188  .00005055  00000+0  24880-3 0  9990
2 49399  97.3328 211.8922 0015597 211.8759 148.1532 15.18322872254759
HIBARI                  
1 49400U 21102F   26176.69420845  .00014235  00000+0  46337-3 0  9993
2 49400  97.3238 222.5006 0012373 162.6168 197.5499 15.31892798255496
DRUMS                   
1 49401U 21102G   26176.62971213  .00005859  00000+0  26999-3 0  9991
2 49401  97.3291 213.4910 0014813 196.3883 163.6876 15.20553572254863
KOSEN-1                 
1 49402U 21102H   26176.59568135  .00009634  00000+0  36574-3 0  9998
2 49402  97.3188 218.5895 0014111 170.8305 189.3195 15.26944089255306
STARLINK-3075           
1 49409U 21104B   26176.82384116  .00198469  00000+0  10954-1 0  9995
2 49409  53.1602 103.4732 0002846  88.8590 271.2729 15.12577865254966
STARLINK-3147           
1 49410U 21104C   26176.42111940  .00230831  00000+0  12790-1 0  9996
2 49410  53.1610 105.3038 0001932  95.7270 264.3943 15.12264377254898
STARLINK-3162           
1 49411U 21104D   26176.48544056  .00000542  00000+0  52127-4 0  9996
2 49411  53.1609  95.0629 0001372  91.9078 268.2071 15.08835841255048
STARLINK-3157           
1 49413U 21104F   26176.74768031  .00000508  00000+0  50038-4 0  9999
2 49413  53.1624  93.8974 0001532  95.5748 264.5418 15.08832453255082
STARLINK-3146           
1 49414U 21104G   26176.81939890  .00001707  00000+0  12531-3 0  9998
2 49414  53.1610 103.5613 0002148  97.1661 262.9574 15.08846583254952
STARLINK-3159           
1 49415U 21104H   26176.74304249  .00000381  00000+0  42055-4 0  9997
2 49415  53.1610  93.9093 0001288  95.9363 264.1775 15.08832730255076
STARLINK-3133           
1 49416U 21104J   26176.81202993  .00001059  00000+0  84578-4 0  9998
2 49416  53.1606 103.5943 0001362  92.6876 267.4271 15.08845265254950
STARLINK-3154           
1 49417U 21104K   26176.77243733 -.00000539  00000+0 -15753-4 0  9994
2 49417  53.1595  93.4255 0001188  92.8771 267.2357 15.08834167255080
STARLINK-3111           
1 49418U 21104L   26176.80835985 -.00000317  00000+0 -18263-5 0  9999
2 49418  53.1596 103.6109 0001551  96.4536 263.6632 15.08840049254943
STARLINK-3120           
1 49419U 21104M   26176.79731604  .00000482  00000+0  48353-4 0  9994
2 49419  53.1603 103.6616 0001427  93.2724 266.8431 15.08840830254942
STARLINK-3110           
1 49420U 21104N   26176.53832458  .00123689  00000+0  74303-2 0  9994
2 49420  53.1601 104.8120 0001778 110.8036 249.3146 15.09927240254903
STARLINK-3112           
1 49421U 21104P   26176.50529567  .00128752  00000+0  77317-2 0  9990
2 49421  53.1610 104.7679 0001814  97.7815 262.3383 15.09910444254907
STARLINK-3161           
1 49422U 21104Q   26176.83145128  .00002986  00000+0  20565-3 0  9998
2 49422  53.1611 103.8271 0001759  82.1056 278.0135 15.08834312254941
STARLINK-3135           
1 49424U 21104S   26176.79363653  .00000546  00000+0  52375-4 0  9995
2 49424  53.1609 103.6789 0001345  83.7826 276.3319 15.08838661254941
STARLINK-3139           
1 49425U 21104T   26176.37990646  .00202782  00000+0  11792-1 0  9999
2 49425  53.1600 105.5202 0001471  77.2644 282.8512 15.10668343254892
STARLINK-3114           
1 49426U 21104U   26176.78627928  .00000941  00000+0  77213-4 0  9991
2 49426  53.1611 103.7111 0001335  92.5965 267.5179 15.08838187254946
STARLINK-3131           
1 49427U 21104V   26176.50853186  .00202297  00000+0  11743-1 0  9990
2 49427  53.1612 104.9389 0001558 111.7974 248.3184 15.10735349254918
